NORAD_CAT_ID,OBJECT_NAME,OBJECT_TYPE,EPOCH,MEAN_MOTION,ECCENTRICITY,INCLINATION,RA_OF_ASC_NODE,ARG_OF_PERICENTER,MEAN_ANOMALY,BSTAR,MEAN_MOTION_DOT,MEAN_MOTION_DDOT,TLE_LINE0,TLE_LINE1,TLE_LINE2,SEMIMAJOR_AXIS,PERIOD,APOGEE,PERIGEE,DECAYED
52297.0,STARLINK-3758,PAYLOAD,2023-05-16 21:44:50,15.08844623,0.0001321,53.2185,33.016,105.241,254.8728,-3.982e-06,-3.51e-06,0.0,0 STARLINK-3758,1 52297U 22041AN  23136.90613518 -.00000351  00000-0 -39820-5 0  9990,2 52297  53.2185  33.0160 0001321 105.2410 254.8728 15.08844623 59342,6917.866,95.437,540.645,538.817,0.0
52297.0,STARLINK-3758,PAYLOAD,2023-05-17 02:30:59,15.08850316,0.0001089,53.2175,32.1272,92.6032,267.5085,9.553e-05,1.233e-05,0.0,0 STARLINK-3758,1 52297U 22041AN  23137.10485137  .00001233  00000-0  95530-4 0  9994,2 52297  53.2175  32.1272 0001089  92.6032 267.5085 15.08850316 60597,6917.849,95.437,540.467,538.961,0.0
52297.0,STARLINK-3758,PAYLOAD,2023-05-17 21:35:37,15.08835543,0.0001308,53.218,28.5546,98.0032,262.1108,7.418e-05,8.93e-06,0.0,0 STARLINK-3758,1 52297U 22041AN  23137.89974114  .00000893  00000-0  74180-4 0  9997,2 52297  53.2180  28.5546 0001308  98.0032 262.1108 15.08835543 59499,6917.894,95.438,540.664,538.854,0.0
52297.0,STARLINK-3758,PAYLOAD,2023-05-18 02:21:47,15.08837607,0.0001291,53.2188,27.6635,97.3935,262.7204,3.3415e-05,2.44e-06,0.0,0 STARLINK-3758,1 52297U 22041AN  23138.09846091  .00000244  00000-0  33415-4 0  9998,2 52297  53.2188  27.6635 0001291  97.3935 262.7204 15.08837607 60747,6917.888,95.438,540.646,538.86,0.0
52297.0,STARLINK-3758,PAYLOAD,2023-05-18 16:40:14,15.08850517,0.000139,53.2181,24.9867,94.334,265.7811,-5.0809e-05,-1.097e-05,0.0,0 STARLINK-3758,1 52297U 22041AN  23138.69461718 -.00001097  00000-0 -50809-4 0  9998,2 52297  53.2181  24.9867 0001390  94.3340 265.7811 15.08850517 60836,6917.848,95.437,540.675,538.752,0.0
52297.0,STARLINK-3758,PAYLOAD,2023-05-18 23:01:47,15.08852278,0.0001378,53.2179,23.7979,94.7353,265.3797,2.2888e-05,7.6e-07,0.0,0 STARLINK-3758,1 52297U 22041AN  23138.95957198  .00000076  00000-0  22888-4 0  9999,2 52297  53.2179  23.7979 0001378  94.7353 265.3797 15.08852278 59651,6917.843,95.437,540.661,538.755,0.0
52297.0,STARLINK-3758,PAYLOAD,2023-05-19 16:31:02,15.08838368,0.0001222,53.2184,20.5319,82.9486,277.1645,3.5673e-05,2.8e-06,0.0,0 STARLINK-3758,1 52297U 22041AN  23139.68822142  .00000280  00000-0  35673-4 0  9993,2 52297  53.2184  20.5319 0001222  82.9486 277.1645 15.08838368 60989,6917.885,95.438,540.596,538.905,0.0
52297.0,STARLINK-3758,PAYLOAD,2023-05-19 21:17:11,15.08838401,0.0001188,53.2185,19.641,81.6697,278.443,3.9731e-05,3.45e-06,0.0,0 STARLINK-3758,1 52297U 22041AN  23139.88694142  .00000345  00000-0  39731-4 0  9993,2 52297  53.2185  19.6410 0001188  81.6697 278.4430 15.08838401 59793,6917.885,95.438,540.572,538.928,0.0
52297.0,STARLINK-3758,PAYLOAD,2023-05-20 14:46:25,15.08844166,0.0001076,53.2183,16.3689,85.8463,274.2652,9.7815e-05,1.269e-05,0.0,0 STARLINK-3758,1 52297U 22041AN  23140.61557531  .00001269  00000-0  97815-4 0  9999,2 52297  53.2183  16.3689 0001076  85.8463 274.2652 15.08844166 61121,6917.868,95.437,540.477,538.988,0.0
52297.0,STARLINK-3758,PAYLOAD,2023-05-20 19:32:34,15.08849162,0.000111,53.2189,15.4772,89.0623,271.0496,6.1103e-05,6.85e-06,0.0,0 STARLINK-3758,1 52297U 22041AN  23140.81429255  .00000685  00000-0  61103-4 0  9994,2 52297  53.2189  15.4772 0001110  89.0623 271.0496 15.08849162 59931,6917.852,95.437,540.485,538.95,0.0
52297.0,STARLINK-3758,PAYLOAD,2023-05-21 01:54:06,15.0886072,0.000102,53.2177,14.285,81.5727,278.5381,0.00015963,2.255e-05,0.0,0 STARLINK-3758,1 52297U 22041AN  23141.07924068  .00002255  00000-0  15963-3 0  9992,2 52297  53.2177  14.2850 0001020  81.5727 278.5381 15.08860720 61193,6917.817,95.436,540.388,538.976,0.0
52297.0,STARLINK-3758,PAYLOAD,2023-05-21 22:34:09,15.08820438,0.000124,53.2176,10.4222,99.727,260.3863,-0.00024411,-4.169e-05,0.0,0 STARLINK-3758,1 52297U 22041AN  23141.94039079 -.00004169  00000-0 -24411-3 0  9993,2 52297  53.2176  10.4222 0001240  99.7270 260.3863 15.08820438 60107,6917.94,95.439,540.663,538.947,0.0
52297.0,STARLINK-3758,PAYLOAD,2023-05-22 01:44:56,15.08820796,0.0001041,53.2166,9.8256,83.5283,276.5828,-0.00020502,-3.547e-05,0.0,0 STARLINK-3758,1 52297U 22041AN  23142.07287245 -.00003547  00000-0 -20502-3 0  9994,2 52297  53.2166   9.8256 0001041  83.5283 276.5828 15.08820796 61343,6917.939,95.439,540.524,539.084,0.0
52297.0,STARLINK-3758,PAYLOAD,2023-05-22 08:06:28,15.08826803,0.0001062,53.2172,8.6368,84.5334,275.5779,-6.5612e-05,-1.331e-05,0.0,0 STARLINK-3758,1 52297U 22041AN  23142.33783272 -.00001331  00000-0 -65612-4 0  9995,2 52297  53.2172   8.6368 0001062  84.5334 275.5779 15.08826803 60160,6917.921,95.438,540.52,539.051,0.0
52297.0,STARLINK-3758,PAYLOAD,2023-05-23 00:00:19,15.0884228,9.08e-05,53.217,5.6618,81.9461,278.1634,0.00014367,2e-05,0.0,0 STARLINK-3758,1 52297U 22041AN  23143.00022910  .00002000  00000-0  14367-3 0  9997,2 52297  53.2170   5.6618 0000908  81.9461 278.1634 15.08842280 61485,6917.873,95.437,540.367,539.11,0.0
52297.0,STARLINK-3758,PAYLOAD,2023-05-23 20:40:20,15.08850719,9.02e-05,53.2163,1.7963,80.6959,279.4135,0.00052997,8.159e-05,0.0,0 STARLINK-3758,1 52297U 22041AN  23143.86135026  .00008159  00000-0  52997-3 0  9996,2 52297  53.2163   1.7963 0000902  80.6959 279.4135 15.08850719 60394,6917.848,95.437,540.337,539.089,0.0
52297.0,STARLINK-3758,PAYLOAD,2023-05-24 03:01:52,15.08871911,9.37e-05,53.216,0.6072,80.0434,280.0664,0.00092156,0.00014422,0.0,0 STARLINK-3758,1 52297U 22041AN  23144.12630353  .00014422  00000-0  92156-3 0  9990,2 52297  53.2160   0.6072 0000937  80.0434 280.0664 15.08871911 61652,6917.783,95.436,540.296,539.0,0.0
52297.0,STARLINK-3758,PAYLOAD,2023-05-24 06:12:39,15.08846496,0.0001195,53.2162,0.0127,68.4092,291.7027,-1.2989e-05,-4.95e-06,0.0,0 STARLINK-3758,1 52297U 22041AN  23144.25878864 -.00000495  00000-0 -12989-4 0  9999,2 52297  53.2162   0.0127 0001195  68.4092 291.7027 15.08846496 61670,6917.861,95.437,540.552,538.899,0.0
52297.0,STARLINK-3758,PAYLOAD,2023-05-24 14:09:34,15.08846946,9.52e-05,53.216,358.5254,92.4788,267.6313,3.795e-05,3.16e-06,0.0,0 STARLINK-3758,1 52297U 22041AN  23144.58998624  .00000316  00000-0  37950-4 0  9997,2 52297  53.2160 358.5254 0000952  92.4788 267.6313 15.08846946 60500,6917.859,95.437,540.383,539.066,0.0
52297.0,STARLINK-3758,PAYLOAD,2023-05-25 18:46:31,15.08849124,0.0001013,53.2162,353.1725,99.2789,260.8317,0.00058333,9.01e-05,0.0,0 STARLINK-3758,1 52297U 22041AN  23145.78230591  .00009010  00000-0  58333-3 0  9999,2 52297  53.2162 353.1725 0001013  99.2789 260.8317 15.08849124 61906,6917.853,95.437,540.418,539.017,0.0
52297.0,STARLINK-3758,PAYLOAD,2023-05-25 20:21:54,15.0884814,0.0001006,53.2163,352.8752,98.4206,261.69,0.00049738,7.639e-05,0.0,0 STARLINK-3758,1 52297U 22041AN  23145.84854565  .00007639  00000-0  49738-3 0  9993,2 52297  53.2163 352.8752 0001006  98.4206 261.6900 15.08848140 60699,6917.856,95.437,540.416,539.025,0.0
52297.0,STARLINK-3758,PAYLOAD,2023-05-26 18:37:18,15.08840656,0.0001048,53.217,348.7123,100.428,259.683,0.00010096,1.319e-05,0.0,0 STARLINK-3758,1 52297U 22041AN  23146.77590750  .00001319  00000-0  10096-3 0  9993,2 52297  53.2170 348.7123 0001048 100.4280 259.6830 15.08840656 62050,6917.878,95.438,540.468,539.018,0.0
52297.0,STARLINK-3758,PAYLOAD,2023-05-26 20:12:41,15.08840632,0.0001046,53.217,348.4149,100.0316,260.0794,9.1523e-05,1.169e-05,0.0,0 STARLINK-3758,1 52297U 22041AN  23146.84214726  .00001169  00000-0  91523-4 0  9995,2 52297  53.2170 348.4149 0001046 100.0316 260.0794 15.08840632 60843,6917.878,95.438,540.467,539.02,0.0
52297.0,STARLINK-3758,PAYLOAD,2023-05-27 20:03:28,15.08837351,0.0001094,53.2178,343.9523,110.2405,249.8704,5.5119e-05,5.89e-06,0.0,0 STARLINK-3758,1 52297U 22041AN  23147.83575063  .00000589  00000-0  55119-4 0  9995,2 52297  53.2178 343.9523 0001094 110.2405 249.8704 15.08837351 62215,6917.888,95.438,540.51,538.997,0.0
52297.0,STARLINK-3758,PAYLOAD,2023-05-28 05:35:47,15.08839331,0.000102,53.2176,342.1691,106.0066,254.1038,9.104e-05,1.161e-05,0.0,0 STARLINK-3758,1 52297U 22041AN  23148.23318965  .00001161  00000-0  91040-4 0  9996,2 52297  53.2176 342.1691 0001020 106.0066 254.1038 15.08839331 61055,6917.882,95.438,540.453,539.042,0.0
52297.0,STARLINK-3758,PAYLOAD,2023-05-28 19:54:15,15.08847131,9.61e-05,53.217,339.4949,99.8555,260.2546,0.00014032,1.947e-05,0.0,0 STARLINK-3758,1 52297U 22041AN  23148.82934445  .00001947  00000-0  14032-3 0  9995,2 52297  53.2170 339.4949 0000961  99.8555 260.2546 15.08847131 62363,6917.859,95.437,540.388,539.059,0.0
52297.0,STARLINK-3758,PAYLOAD,2023-05-29 05:26:34,15.08844218,8.82e-05,53.2169,337.7118,97.8002,262.309,0.00010465,1.378e-05,0.0,0 STARLINK-3758,1 52297U 22041AN  23149.22678704  .00001378  00000-0  10465-3 0  9997,2 52297  53.2169 337.7118 0000882  97.8002 262.3090 15.08844218 62424,6917.867,95.437,540.343,539.122,0.0
52297.0,STARLINK-3758,PAYLOAD,2023-05-29 16:34:17,15.08832539,9.51e-05,53.2173,335.6286,86.7928,273.3173,1.7949e-05,-2e-08,0.0,0 STARLINK-3758,1 52297U 22041AN  23149.69047779 -.00000002  00000-0  17949-4 0  9999,2 52297  53.2173 335.6286 0000951  86.7928 273.3173 15.08832539 62497,6917.903,95.438,540.426,539.11,0.0
52297.0,STARLINK-3758,PAYLOAD,2023-05-29 21:20:26,15.08837814,9.69e-05,53.2172,334.7366,87.0801,273.0303,5.99e-05,6.66e-06,0.0,0 STARLINK-3758,1 52297U 22041AN  23149.88919378  .00000666  00000-0  59900-4 0  9991,2 52297  53.2172 334.7366 0000969  87.0801 273.0303 15.08837814 61300,6917.887,95.438,540.422,539.082,0.0
52297.0,STARLINK-3758,PAYLOAD,2023-05-30 05:17:22,15.08837939,9.86e-05,53.2174,333.2498,83.0531,277.0574,5.6097e-05,6.05e-06,0.0,0 STARLINK-3758,1 52297U 22041AN  23150.22039430  .00000605  00000-0  56097-4 0  9990,2 52297  53.2174 333.2498 0000986  83.0531 277.0574 15.08837939 62579,6917.887,95.438,540.434,539.07,0.0
